{"type": "FeatureCollection", "features": [ {"type": "Feature", "properties": {"norad_id": 67083, "name": "STARLINK-36170", "group": "last-30-days", "lat": -55.855893257644375, "lon": 60.78535891114645, "alt_km": 355.9266384255934, "timestamp": "2025-12-27T09:28:55.187002+00:00", "meta": {"OBJECT_NAME": "STARLINK-36170", "OBJECT_ID": "2025-298J", "EPOCH": "2025-12-27T04:00:01.998720", "MEAN_MOTION": 15.73536547, "ECCENTRICITY": 0.0003689, "INCLINATION": 69.999, "RA_OF_ASC_NODE": 208.9429, "ARG_OF_PERICENTER": 276.8017, "MEAN_ANOMALY": 111.8763, "EPHEMERIS_TYPE": 0, "CLASSIFICATION_TYPE": "U", "NORAD_CAT_ID": 67083, "ELEMENT_SET_NO": 999, "REV_AT_EPOCH": 329, "BSTAR": -0.014316, "MEAN_MOTION_DOT": -0.01763896, "MEAN_MOTION_DDOT": 0}, "tle": {"line1": "1 67083U 25298J   25361.16668980 -.01763896  00000+0 -14316-1 0  9998", "line2": "2 67083  69.9990 208.9429 0003689 276.8017 111.8763 15.73536547  3296"}}, "geometry": {"type": "Point", "coordinates": [60.78535891114645, -55.855893257644375]}}, {"type": "Feature", "properties": {"norad_id": 67084, "name": "STARLINK-36166", "group": "last-30-days", "lat": -57.39934747069088, "lon": 63.01572668661825, "alt_km": 355.9782875873525, "timestamp": "2025-12-27T09:28:55.187014+00:00", "meta": {"OBJECT_NAME": "STARLINK-36166", "OBJECT_ID": "2025-298K", "EPOCH": "2025-12-27T04:00:01.998720", "MEAN_MOTION": 15.73531257, "ECCENTRICITY": 0.0003676, "INCLINATION": 69.9987, "RA_OF_ASC_NODE": 208.9406, "ARG_OF_PERICENTER": 278.7486, "MEAN_ANOMALY": 111.9095, "EPHEMERIS_TYPE": 0, "CLASSIFICATION_TYPE": "U", "NORAD_CAT_ID": 67084, "ELEMENT_SET_NO": 999, "REV_AT_EPOCH": 323, "BSTAR": -0.014306, "MEAN_MOTION_DOT": -0.0176248, "MEAN_MOTION_DDOT": 0}, "tle": {"line1": "1 67084U 25298K   25361.16668980 -.01762480  00000+0 -14306-1 0  9996", "line2": "2 67084  69.9987 208.9406 0003676 278.7486 111.9095 15.73531257  3231"}}, "geometry": {"type": "Point", "coordinates": [63.01572668661825, -57.39934747069088]}}, {"type": "Feature", "properties": {"norad_id": 67085, "name": "STARLINK-35794", "group": "last-30-days", "lat": -58.88767181160777, "lon": 65.41710336836266, "alt_km": 355.9182504065175, "timestamp": "2025-12-27T09:28:55.187026+00:00", "meta": {"OBJECT_NAME": "STARLINK-35794", "OBJECT_ID": "2025-298L", "EPOCH": "2025-12-27T04:00:01.998720", "MEAN_MOTION": 15.73531016, "ECCENTRICITY": 0.0003704, "INCLINATION": 69.9991, "RA_OF_ASC_NODE": 208.9383, "ARG_OF_PERICENTER": 277.5556, "MEAN_ANOMALY": 115.0609, "EPHEMERIS_TYPE": 0, "CLASSIFICATION_TYPE": "U", "NORAD_CAT_ID": 67085, "ELEMENT_SET_NO": 999, "REV_AT_EPOCH": 329, "BSTAR": -0.014327, "MEAN_MOTION_DOT": -0.01764753, "MEAN_MOTION_DDOT": 0}, "tle": {"line1": "1 67085U 25298L   25361.16668980 -.01764753  00000+0 -14327-1 0  9995", "line2": "2 67085  69.9991 208.9383 0003704 277.5556 115.0609 15.73531016  3293"}}, "geometry": {"type": "Point", "coordinates": [65.41710336836266, -58.88767181160777]}}, {"type": "Feature", "properties": {"norad_id": 67086, "name": "STARLINK-35841", "group": "last-30-days", "lat": -60.43447372862921, "lon": 68.2401956584044, "alt_km": 355.996341132779, "timestamp": "2025-12-27T09:28:55.187039+00:00", "meta": {"OBJECT_NAME": "STARLINK-35841", "OBJECT_ID": "2025-298M", "EPOCH": "2025-12-27T04:00:01.998720", "MEAN_MOTION": 15.7351536, "ECCENTRICITY": 0.0003597, "INCLINATION": 69.9988, "RA_OF_ASC_NODE": 208.9355, "ARG_OF_PERICENTER": 277.8078, "MEAN_ANOMALY": 116.9265, "EPHEMERIS_TYPE": 0, "CLASSIFICATION_TYPE": "U", "NORAD_CAT_ID": 67086, "ELEMENT_SET_NO": 999, "REV_AT_EPOCH": 329, "BSTAR": -0.014255, "MEAN_MOTION_DOT": -0.0175574, "MEAN_MOTION_DDOT": 0}, "tle": {"line1": "1 67086U 25298M   25361.16668980 -.01755740  00000+0 -14255-1 0  9992", "line2": "2 67086  69.9988 208.9355 0003597 277.8078 116.9265 15.73515360  3293"}}, "geometry": {"type": "Point", "coordinates": [68.2401956584044, -60.43447372862921]}}, {"type": "Feature", "properties": {"norad_id": 67087, "name": "STARLINK-35842", "group": "last-30-days", "lat": -37.589576148578544, "lon": 44.606742775884086, "alt_km": 370.2990572430681, "timestamp": "2025-12-27T09:28:55.187049+00:00", "meta": {"OBJECT_NAME": "STARLINK-35842", "OBJECT_ID": "2025-298N", "EPOCH": "2025-12-27T04:00:01.998720", "MEAN_MOTION": 15.68876571, "ECCENTRICITY": 0.000379, "INCLINATION": 69.9994, "RA_OF_ASC_NODE": 208.9627, "ARG_OF_PERICENTER": 273.7575, "MEAN_ANOMALY": 97.626, "EPHEMERIS_TYPE": 0, "CLASSIFICATION_TYPE": "U", "NORAD_CAT_ID": 67087, "ELEMENT_SET_NO": 999, "REV_AT_EPOCH": 329, "BSTAR": -0.025195, "MEAN_MOTION_DOT": -0.02534655, "MEAN_MOTION_DDOT": 0}, "tle": {"line1": "1 67087U 25298N   25361.16668980 -.02534655  00000+0 -25195-1 0  9999", "line2": "2 67087  69.9994 208.9627 0003790 273.7575  97.6260 15.68876571  3293"}}, "geometry": {"type": "Point", "coordinates": [44.606742775884086, -37.589576148578544]}}, {"type": "Feature", "properties": {"norad_id": 67088, "name": "STARLINK-35882", "group": "last-30-days", "lat": -63.12360149859797, "lon": 74.23556753516185, "alt_km": 355.85182660887494, "timestamp": "2025-12-27T09:28:55.187059+00:00", "meta": {"OBJECT_NAME": "STARLINK-35882", "OBJECT_ID": "2025-298P", "EPOCH": "2025-12-27T04:00:01.998720", "MEAN_MOTION": 15.73518702, "ECCENTRICITY": 0.0003755, "INCLINATION": 69.999, "RA_OF_ASC_NODE": 208.9314, "ARG_OF_PERICENTER": 276.9053, "MEAN_ANOMALY": 121.741, "EPHEMERIS_TYPE": 0, "CLASSIFICATION_TYPE": "U", "NORAD_CAT_ID": 67088, "ELEMENT_SET_NO": 999, "REV_AT_EPOCH": 329, "BSTAR": -0.014354, "MEAN_MOTION_DOT": -0.0176684, "MEAN_MOTION_DDOT": 0}, "tle": {"line1": "1 67088U 25298P   25361.16668980 -.01766840  00000+0 -14354-1 0  9997", "line2": "2 67088  69.9990 208.9314 0003755 276.9053 121.7410 15.73518702  3291"}}, "geometry": {"type": "Point", "coordinates": [74.23556753516185, -63.12360149859797]}}, {"type": "Feature", "properties": {"norad_id": 67089, "name": "STARLINK-35763", "group": "last-30-days", "lat": -64.44176334886507, "lon": 77.89660390770551, "alt_km": 356.08818914994026, "timestamp": "2025-12-27T09:28:55.187069+00:00", "meta": {"OBJECT_NAME": "STARLINK-35763", "OBJECT_ID": "2025-298Q", "EPOCH": "2025-12-27T04:00:01.998720", "MEAN_MOTION": 15.73507405, "ECCENTRICITY": 0.0003457, "INCLINATION": 69.9989, "RA_OF_ASC_NODE": 208.9281, "ARG_OF_PERICENTER": 279.1462, "MEAN_ANOMALY": 121.5993, "EPHEMERIS_TYPE": 0, "CLASSIFICATION_TYPE": "U", "NORAD_CAT_ID": 67089, "ELEMENT_SET_NO": 999, "REV_AT_EPOCH": 329, "BSTAR": -0.014346, "MEAN_MOTION_DOT": -0.01764965, "MEAN_MOTION_DDOT": 0}, "tle": {"line1": "1 67089U 25298Q   25361.16668980 -.01764965  00000+0 -14346-1 0  9995", "line2": "2 67089  69.9989 208.9281 0003457 279.1462 121.5993 15.73507405  3293"}}, "geometry": {"type": "Point", "coordinates": [77.89660390770551, -64.44176334886507]}}, {"type": "Feature", "properties": {"norad_id": 67090, "name": "STARLINK-36060", "group": "last-30-days", "lat": -65.53822925496632, "lon": 81.48001525328912, "alt_km": 355.8554386777423, "timestamp": "2025-12-27T09:28:55.187079+00:00", "meta": {"OBJECT_NAME": "STARLINK-36060", "OBJECT_ID": "2025-298R", "EPOCH": "2025-12-27T04:00:01.998720", "MEAN_MOTION": 15.73507287, "ECCENTRICITY": 0.0003761, "INCLINATION": 69.9985, "RA_OF_ASC_NODE": 208.9256, "ARG_OF_PERICENTER": 278.5066, "MEAN_ANOMALY": 124.112, "EPHEMERIS_TYPE": 0, "CLASSIFICATION_TYPE": "U", "NORAD_CAT_ID": 67090, "ELEMENT_SET_NO": 999, "REV_AT_EPOCH": 323, "BSTAR": -0.014288, "MEAN_MOTION_DOT": -0.01758999, "MEAN_MOTION_DDOT": 0}, "tle": {"line1": "1 67090U 25298R   25361.16668980 -.01758999  00000+0 -14288-1 0  9992", "line2": "2 67090  69.9985 208.9256 0003761 278.5066 124.1120 15.73507287  3237"}}, "geometry": {"type": "Point", "coordinates": [81.48001525328912, -65.53822925496632]}}, {"type": "Feature", "properties": {"norad_id": 67091, "name": "STARLINK-36097", "group": "last-30-days", "lat": -66.64362837989323, "lon": 85.79355107007322, "alt_km": 355.92762317987035, "timestamp": "2025-12-27T09:28:55.187088+00:00", "meta": {"OBJECT_NAME": "STARLINK-36097", "OBJECT_ID": "2025-298S", "EPOCH": "2025-12-27T04:00:01.998720", "MEAN_MOTION": 15.73501478, "ECCENTRICITY": 0.0003625, "INCLINATION": 69.9985, "RA_OF_ASC_NODE": 208.9236, "ARG_OF_PERICENTER": 277.197, "MEAN_ANOMALY": 127.4979, "EPHEMERIS_TYPE": 0, "CLASSIFICATION_TYPE": "U", "NORAD_CAT_ID": 67091, "ELEMENT_SET_NO": 999, "REV_AT_EPOCH": 329, "BSTAR": -0.014346, "MEAN_MOTION_DOT": -0.01764722, "MEAN_MOTION_DDOT": 0}, "tle": {"line1": "1 67091U 25298S   25361.16668980 -.01764722  00000+0 -14346-1 0  9999", "line2": "2 67091  69.9985 208.9236 0003625 277.1970 127.4979 15.73501478  3294"}}, "geometry": {"type": "Point", "coordinates": [85.79355107007322, -66.64362837989323]}}, {"type": "Feature", "properties": {"norad_id": 67092, "name": "STARLINK-35792", "group": "last-30-days", "lat": -67.53388181577314, "lon": 90.0261529479294, "alt_km": 355.87053505358017, "timestamp": "2025-12-27T09:28:55.187098+00:00", "meta": {"OBJECT_NAME": "STARLINK-35792", "OBJECT_ID": "2025-298T", "EPOCH": "2025-12-27T04:00:01.998720", "MEAN_MOTION": 15.73502624, "ECCENTRICITY": 0.0003685, "INCLINATION": 69.9985, "RA_OF_ASC_NODE": 208.9213, "ARG_OF_PERICENTER": 277.904, "MEAN_ANOMALY": 128.6657, "EPHEMERIS_TYPE": 0, "CLASSIFICATION_TYPE": "U", "NORAD_CAT_ID": 67092, "ELEMENT_SET_NO": 999, "REV_AT_EPOCH": 323, "BSTAR": -0.014303, "MEAN_MOTION_DOT": -0.01760192, "MEAN_MOTION_DDOT": 0}, "tle": {"line1": "1 67092U 25298T   25361.16668980 -.01760192  00000+0 -14303-1 0  9990", "line2": "2 67092  69.9985 208.9213 0003685 277.9040 128.6657 15.73502624  3236"}}, "geometry": {"type": "Point", "coordinates": [90.0261529479294, -67.53388181577314]}}]}